APRIZESAT 2             
1 28366U 04025A   26155.27325993  .00000169  00000+0  65868-4 0  9997
2 28366  98.1005 321.9855 0104338 289.3078  69.6850 14.38030901149781
SAUDICOMSAT 1           
1 28369U 04025D   26154.81693510  .00000456  00000+0  11546-3 0  9994
2 28369  98.5772 164.5878 0033296  65.4771 294.9891 14.55462296162184
SAUDICOMSAT 2           
1 28370U 04025E   26155.01386812  .00000308  00000+0  90964-4 0  9991
2 28370  98.6642 166.8870 0054262 300.2351  59.3476 14.49973095158195
APRIZESAT 1             
1 28372U 04025G   26155.61311203  .00000255  00000+0  74721-4 0  9995
2 28372  98.6304 165.9962 0044334 191.8699 168.1454 14.51770809160089
NANOSAT-1               
1 28493U 04049B   26155.18957824  .00001318  00000+0  18098-3 0  9997
2 28493  98.2261 291.5343 0003582 354.0939   6.0230 14.80133118153521
SAUDICOMSAT 7           
1 31119U 07012C   26154.73599602  .00000597  00000+0  11609-3 0  9994
2 31119  98.3772 128.5929 0054533 237.9679 121.6220 14.66096392 20464
SAUDICOMSAT 6           
1 31121U 07012E   26155.50217808  .00000872  00000+0  17580-3 0  9998
2 31121  98.4090 122.7832 0071984   7.4075 352.8172 14.62541698 18336
SAUDICOMSAT 5           
1 31124U 07012H   26154.72816403  .00000660  00000+0  12207-3 0  9996
2 31124  98.3483 129.3353 0047649 166.4066 193.8434 14.68140034 21627
SAUDICOMSAT 3           
1 31125U 07012J   26154.43994603  .00000985  00000+0  16842-3 0  9993
2 31125  98.3138 129.5910 0040504  95.2690 265.3139 14.70681681 22800
SAUDICOMSAT 4           
1 31127U 07012L   26154.76337527  .00000697  00000+0  13788-3 0  9993
2 31127  98.3976 127.0607 0062263 301.0451  58.4648 14.64497432 19328
APRIZESAT 4             
1 35684U 09041D   26155.71471126  .00000905  00000+0  11430-3 0  9993
2 35684  98.1412 230.7866 0043322   3.9288 356.2256 14.83862321909510
APRIZESAT 3             
1 35686U 09041F   26155.05815830  .00001620  00000+0  14392-3 0  9991
2 35686  98.2059 307.6550 0063014 109.9419 250.8603 14.96203769914416
S-NET D                 
1 43186U 18014G   26155.72810238  .00005903  00000+0  30569-3 0  9998
2 43186  97.5370  60.5972 0009887  67.4587 292.7691 15.16550561456874
S-NET B                 
1 43187U 18014H   26155.67333098  .00006432  00000+0  33300-3 0  9991
2 43187  97.5376  60.5288 0010426  63.4642 296.7659 15.16520086456866
S-NET A                 
1 43188U 18014J   26155.72704580  .00005834  00000+0  30204-3 0  9991
2 43188  97.5386  60.7888 0010387  63.5981 296.6317 15.16558138456879
S-NET C                 
1 43189U 18014K   26155.67714318  .00006393  00000+0  33099-3 0  9992
2 43189  97.5402  60.8120 0011555  56.9894 303.2448 15.16511330455418
SALSAT                  
1 46495U 20068K   26154.99736177  .00008555  00000+0  30076-3 0  9992
2 46495  97.8850 157.2614 0009364 359.9507   0.1729 15.29597840313346
OOV-CUBE (TUBSAT-30)    
1 60240U 24128F   26155.87862744  .00003161  00000+0  24588-3 0  9994
2 60240  61.9956 268.4903 0046149 131.0003 229.5093 15.02716687104260
LPNTSAT-001 (IOD-1)     
1 68408U 26065A   26155.88597873  .00003643  00000+0  17934-3 0  9991
2 68408  97.4030  36.6556 0017838  51.4443 308.8387 15.18469851 10398
